start=new Date('2022-01-31T00:00:00.000Z').valueOf();
sats=[{"GP_ID":"194983207","SITE":"AFETR","MEAN_MOTION_DOT":"-0.00030942","INCLINATION":"53.0501","RA_OF_ASC_NODE":"159.4984","DECAY_DATE":null,"TIME_SYSTEM":"UTC","ARG_OF_PERICENTER":"74.8473","APOAPSIS":"548.119","EPHEMERIS_TYPE":"0","MEAN_ELEMENT_THEORY":"SGP4","SEMIMAJOR_AXIS":"6925.338","NORAD_CAT_ID":"47979","ECCENTRICITY":"0.00013230","BSTAR":"-0.00206720000000","ELEMENT_SET_NO":"999","EPOCH":"2022-01-31T00:00:00.999648","TLE_LINE2":"2 47979  53.0501 159.4984 0001323  74.8473 271.9992 15.06403380  3578","REV_AT_EPOCH":"357","COUNTRY_CODE":"US","CLASSIFICATION_TYPE":"U","MEAN_MOTION_DDOT":"0.0000000000000","LAUNCH_DATE":"2021-03-24","OBJECT_ID":"2021-024C","MEAN_ANOMALY":"271.9992","RCS_SIZE":"LARGE","OBJECT_NAME":"STARLINK-2325","FILE":"3287903","TLE_LINE1":"1 47979U 21024C   22031.00001157 -.00030942  00000-0 -20672-2 0  9996","PERIOD":"95.592","MEAN_MOTION":"15.06403380","PERIAPSIS":"546.287","REF_FRAME":"TEME","CENTER_NAME":"EARTH","OBJECT_TYPE":"PAYLOAD"},{"MEAN_MOTION_DDOT":"0.0000000000000","CLASSIFICATION_TYPE":"U","LAUNCH_DATE":"2021-03-24","OBJECT_NAME":"STARLINK-2312","FILE":"3287903","TLE_LINE1":"1 47980U 21024D   22031.00001157 -.00020735  00000-0 -13773-2 0  9991","PERIOD":"95.592","OBJECT_ID":"2021-024D","MEAN_ANOMALY":"241.7529","RCS_SIZE":"LARGE","REF_FRAME":"TEME","CENTER_NAME":"EARTH","OBJECT_TYPE":"PAYLOAD","MEAN_MOTION":"15.06395899","PERIAPSIS":"546.122","MEAN_MOTION_DOT":"-0.00020735","GP_ID":"194983957","SITE":"AFETR","DECAY_DATE":null,"TIME_SYSTEM":"UTC","EPHEMERIS_TYPE":"0","APOAPSIS":"548.330","ARG_OF_PERICENTER":"54.9493","RA_OF_ASC_NODE":"139.4873","INCLINATION":"53.0553","EPOCH":"2022-01-31T00:00:00.999648","NORAD_CAT_ID":"47980","SEMIMAJOR_AXIS":"6925.361","MEAN_ELEMENT_THEORY":"SGP4","BSTAR":"-0.00137730000000","ELEMENT_SET_NO":"999","ECCENTRICITY":"0.00015940","TLE_LINE2":"2 47980  53.0553 139.4873 0001594  54.9493 241.7529 15.06395899  3579","REV_AT_EPOCH":"357","COUNTRY_CODE":"US"},{"COUNTRY_CODE":"US","TLE_LINE2":"2 47981  53.0515 225.1539 0001924  76.4380 283.6823 15.06404833 48650","REV_AT_EPOCH":"4865","EPOCH":"2022-01-30T20:31:55.911936","ECCENTRICITY":"0.00019240","BSTAR":"0.00018590000000","ELEMENT_SET_NO":"999","NORAD_CAT_ID":"47981","SEMIMAJOR_AXIS":"6925.334","MEAN_ELEMENT_THEORY":"SGP4","DECAY_DATE":null,"EPHEMERIS_TYPE":"0","APOAPSIS":"548.531","ARG_OF_PERICENTER":"76.4380","TIME_SYSTEM":"UTC","INCLINATION":"53.0515","RA_OF_ASC_NODE":"225.1539","MEAN_MOTION_DOT":"0.00002489","GP_ID":"194982705","SITE":"AFETR","REF_FRAME":"TEME","OBJECT_TYPE":"PAYLOAD","CENTER_NAME":"EARTH","MEAN_MOTION":"15.06404833","PERIAPSIS":"545.866","FILE":"3287903","OBJECT_NAME":"STARLINK-2303","TLE_LINE1":"1 47981U 21024E   22030.85550824  .00002489  00000-0  18590-3 0  9991","PERIOD":"95.592","RCS_SIZE":"LARGE","MEAN_ANOMALY":"283.6823","OBJECT_ID":"2021-024E","LAUNCH_DATE":"2021-03-24","MEAN_MOTION_DDOT":"0.0000000000000","CLASSIFICATION_TYPE":"U"},{"COUNTRY_CODE":"US","REV_AT_EPOCH":"357","TLE_LINE2":"2 47982  53.0530 154.4906 0001718  55.8134 113.4195 15.06560704  3573","ELEMENT_SET_NO":"999","BSTAR":"-0.01804900000000","ECCENTRICITY":"0.00017180","SEMIMAJOR_AXIS":"6924.856","NORAD_CAT_ID":"47982","MEAN_ELEMENT_THEORY":"SGP4","EPOCH":"2022-01-31T00:00:00.999648","INCLINATION":"53.0530","RA_OF_ASC_NODE":"154.4906","EPHEMERIS_TYPE":"0","APOAPSIS":"547.911","ARG_OF_PERICENTER":"55.8134","TIME_SYSTEM":"UTC","DECAY_DATE":null,"SITE":"AFETR","GP_ID":"194982955","MEAN_MOTION_DOT":"-0.00260618","PERIAPSIS":"545.531","MEAN_MOTION":"15.06560704","OBJECT_TYPE":"PAYLOAD","CENTER_NAME":"EARTH","REF_FRAME":"TEME","RCS_SIZE":"LARGE","OBJECT_ID":"2021-024F","MEAN_ANOMALY":"113.4195","PERIOD":"95.582","TLE_LINE1":"1 47982U 21024F   22031.00001157 -.00260618  00000-0 -18049-1 0  9999","FILE":"3287903","OBJECT_NAME":"STARLINK-2317","LAUNCH_DATE":"2021-03-24","CLASSIFICATION_TYPE":"U","MEAN_MOTION_DDOT":"0.0000000000000"},{"MEAN_ANOMALY":"165.6222","OBJECT_ID":"2021-024J","RCS_SIZE":"LARGE","OBJECT_NAME":"STARLINK-2308","FILE":"3287903","PERIOD":"95.695","TLE_LINE1":"1 47985U 21024J   22031.00001157 -.00033091  00000-0 -23117-2 0  9998","PERIAPSIS":"551.188","MEAN_MOTION":"15.04782985","REF_FRAME":"TEME","CENTER_NAME":"EARTH","OBJECT_TYPE":"PAYLOAD","CLASSIFICATION_TYPE":"U","MEAN_MOTION_DDOT":"0.0000000000000","LAUNCH_DATE":"2021-03-24","NORAD_CAT_ID":"47985","SEMIMAJOR_AXIS":"6930.309","MEAN_ELEMENT_THEORY":"SGP4","BSTAR":"-0.00231170000000","ECCENTRICITY":"0.00014220","ELEMENT_SET_NO":"999","EPOCH":"2022-01-31T00:00:00.999648","REV_AT_EPOCH":"357","TLE_LINE2":"2 47985  53.0541 159.4464 0001422  86.3215 165.6222 15.04782985  3578","COUNTRY_CODE":"US","GP_ID":"194983707","SITE":"AFETR","MEAN_MOTION_DOT":"-0.00033091","RA_OF_ASC_NODE":"159.4464","INCLINATION":"53.0541","DECAY_DATE":null,"TIME_SYSTEM":"UTC","EPHEMERIS_TYPE":"0","APOAPSIS":"553.159","ARG_OF_PERICENTER":"86.3215"},{"GP_ID":"194983458","SITE":"AFETR","MEAN_MOTION_DOT":"0.00394885","INCLINATION":"53.0545","RA_OF_ASC_NODE":"84.7300","DECAY_DATE":null,"APOAPSIS":"321.059","EPHEMERIS_TYPE":"0","ARG_OF_PERICENTER":"112.9911","TIME_SYSTEM":"UTC","ELEMENT_SET_NO":"999","BSTAR":"0.00168580000000","ECCENTRICITY":"0.00011690","SEMIMAJOR_AXIS":"6698.411","NORAD_CAT_ID":"47986","MEAN_ELEMENT_THEORY":"SGP4","EPOCH":"2022-01-31T00:00:00.999648","COUNTRY_CODE":"US","TLE_LINE2":"2 47986  53.0545  84.7300 0001169 112.9911 244.5806 15.83598601  3694","REV_AT_EPOCH":"369","CLASSIFICATION_TYPE":"U","MEAN_MOTION_DDOT":"0.0000000000000","LAUNCH_DATE":"2021-03-24","RCS_SIZE":"LARGE","OBJECT_ID":"2021-024K","MEAN_ANOMALY":"244.5806","FILE":"3287903","OBJECT_NAME":"STARLINK-2313","TLE_LINE1":"1 47986U 21024K   22031.00001157  .00394885  00000-0  16858-2 0  9992","PERIOD":"90.932","MEAN_MOTION":"15.83598601","PERIAPSIS":"319.493","REF_FRAME":"TEME","OBJECT_TYPE":"PAYLOAD","CENTER_NAME":"EARTH"},{"CENTER_NAME":"EARTH","OBJECT_TYPE":"PAYLOAD","REF_FRAME":"TEME","PERIAPSIS":"459.768","MEAN_MOTION":"15.34963543","TLE_LINE1":"1 47988U 21024M   22030.82589660  .00471506  00000-0  12878-1 0  9996","PERIOD":"93.813","OBJECT_NAME":"STARLINK-2306","FILE":"3287903","MEAN_ANOMALY":"311.7135","OBJECT_ID":"2021-024M","RCS_SIZE":"LARGE","LAUNCH_DATE":"2021-03-24","MEAN_MOTION_DDOT":"0.0000000000000","CLASSIFICATION_TYPE":"U","REV_AT_EPOCH":"4901","TLE_LINE2":"2 47988  53.0566 194.7996 0001847  48.4025 311.7135 15.34963543 49019","COUNTRY_CODE":"US","EPOCH":"2022-01-30T19:49:17.466240","SEMIMAJOR_AXIS":"6839.166","NORAD_CAT_ID":"47988","MEAN_ELEMENT_THEORY":"SGP4","BSTAR":"0.01287800000000","ECCENTRICITY":"0.00018470","ELEMENT_SET_NO":"999","TIME_SYSTEM":"UTC","EPHEMERIS_TYPE":"0","APOAPSIS":"462.294","ARG_OF_PERICENTER":"48.4025","DECAY_DATE":null,"INCLINATION":"53.0566","RA_OF_ASC_NODE":"194.7996","MEAN_MOTION_DOT":"0.00471506","SITE":"AFETR","GP_ID":"194982206"},{"NORAD_CAT_ID":"47989","SEMIMAJOR_AXIS":"6925.364","MEAN_ELEMENT_THEORY":"SGP4","ECCENTRICITY":"0.00015190","BSTAR":"-0.00309490000000","ELEMENT_SET_NO":"999","EPOCH":"2022-01-31T00:00:00.999648","TLE_LINE2":"2 47989  53.0544 134.4892 0001519  86.9891 137.3867 15.06394906  3571","REV_AT_EPOCH":"357","COUNTRY_CODE":"US","SITE":"AFETR","GP_ID":"194982456","MEAN_MOTION_DOT":"-0.00046077","INCLINATION":"53.0544","RA_OF_ASC_NODE":"134.4892","TIME_SYSTEM":"UTC","APOAPSIS":"548.281","ARG_OF_PERICENTER":"86.9891","EPHEMERIS_TYPE":"0","DECAY_DATE":null,"OBJECT_ID":"2021-024N","MEAN_ANOMALY":"137.3867","RCS_SIZE":"LARGE","PERIOD":"95.592","TLE_LINE1":"1 47989U 21024N   22031.00001157 -.00046077  00000-0 -30949-2 0  9991","OBJECT_NAME":"STARLINK-2305","FILE":"3287903","MEAN_MOTION":"15.06394906","PERIAPSIS":"546.177","CENTER_NAME":"EARTH","OBJECT_TYPE":"PAYLOAD","REF_FRAME":"TEME","CLASSIFICATION_TYPE":"U","MEAN_MOTION_DDOT":"0.0000000000000","LAUNCH_DATE":"2021-03-24"},{"MEAN_MOTION":"15.06404068","PERIAPSIS":"546.224","REF_FRAME":"TEME","CENTER_NAME":"EARTH","OBJECT_TYPE":"PAYLOAD","MEAN_ANOMALY":"46.5631","OBJECT_ID":"2021-024P","RCS_SIZE":"LARGE","OBJECT_NAME":"STARLINK-2307","FILE":"3287903","PERIOD":"95.592","TLE_LINE1":"1 47990U 21024P   22031.00001157 -.00041145  00000-0 -27590-2 0  9992","LAUNCH_DATE":"2021-03-24","CLASSIFICATION_TYPE":"U","MEAN_MOTION_DDOT":"0.0000000000000","TLE_LINE2":"2 47990  53.0510 134.5081 0001411  72.6617  46.5631 15.06404068  3577","REV_AT_EPOCH":"357","COUNTRY_CODE":"US","SEMIMAJOR_AXIS":"6925.336","NORAD_CAT_ID":"47990","MEAN_ELEMENT_THEORY":"SGP4","BSTAR":"-0.00275900000000","ECCENTRICITY":"0.00014110","ELEMENT_SET_NO":"999","EPOCH":"2022-01-31T00:00:00.999648","INCLINATION":"53.0510","RA_OF_ASC_NODE":"134.5081","DECAY_DATE":null,"TIME_SYSTEM":"UTC","APOAPSIS":"548.178","EPHEMERIS_TYPE":"0","ARG_OF_PERICENTER":"72.6617","GP_ID":"194983208","SITE":"AFETR","MEAN_MOTION_DOT":"-0.00041145"},{"OBJECT_TYPE":"PAYLOAD","CENTER_NAME":"EARTH","REF_FRAME":"TEME","MEAN_MOTION":"15.04774002","PERIAPSIS":"551.355","PERIOD":"95.695","TLE_LINE1":"1 47991U 21024Q   22031.00001157 -.00025994  00000-0 -18104-2 0  9998","FILE":"3287903","OBJECT_NAME":"STARLINK-2279","RCS_SIZE":"LARGE","OBJECT_ID":"2021-024Q","MEAN_ANOMALY":"103.2437","LAUNCH_DATE":"2021-03-24","MEAN_MOTION_DDOT":"0.0000000000000","CLASSIFICATION_TYPE":"U","COUNTRY_CODE":"US","TLE_LINE2":"2 47991  53.0538 149.2312 0001222  95.3555 103.2437 15.04774002  3572","REV_AT_EPOCH":"357","EPOCH":"2022-01-31T00:00:00.999648","ELEMENT_SET_NO":"999","BSTAR":"-0.00181040000000","ECCENTRICITY":"0.00012220","SEMIMAJOR_AXIS":"6930.336","NORAD_CAT_ID":"47991","MEAN_ELEMENT_THEORY":"SGP4","ARG_OF_PERICENTER":"95.3555","APOAPSIS":"553.048","EPHEMERIS_TYPE":"0","TIME_SYSTEM":"UTC","DECAY_DATE":null,"INCLINATION":"53.0538","RA_OF_ASC_NODE":"149.2312","MEAN_MOTION_DOT":"-0.00025994","SITE":"AFETR","GP_ID":"194983958"}];
